start=new Date('2023-01-25T00:00:00.000Z').valueOf();
sats=[{"FILE":"3759716","EPOCH":"2023-01-24T06:19:14.837088","PERIOD":"95.592","MEAN_ELEMENT_THEORY":"SGP4","SITE":"AFETR","ARG_OF_PERICENTER":"103.6169","MEAN_MOTION_DDOT":"0.0000000000000","CENTER_NAME":"EARTH","OBJECT_TYPE":"PAYLOAD","EPHEMERIS_TYPE":"0","GP_ID":"223632287","ELEMENT_SET_NO":"999","INCLINATION":"53.0548","RA_OF_ASC_NODE":"36.1861","SEMIMAJOR_AXIS":"6925.344","NORAD_CAT_ID":"46173","MEAN_ANOMALY":"256.5023","REV_AT_EPOCH":"13483","LAUNCH_DATE":"2020-08-18","OBJECT_NAME":"STARLINK-1640","ECCENTRICITY":"0.00018200","MEAN_MOTION":"15.06401573","COUNTRY_CODE":"US","TLE_LINE1":"1 46173U 20057BJ  23024.26336617  .00006737  00000-0  47074-3 0  9998","BSTAR":"0.00047074000000","REF_FRAME":"TEME","APOAPSIS":"548.469","CLASSIFICATION_TYPE":"U","PERIAPSIS":"545.948","RCS_SIZE":"LARGE","DECAY_DATE":null,"OBJECT_ID":"2020-057BJ","TIME_SYSTEM":"UTC","TLE_LINE2":"2 46173  53.0548  36.1861 0001820 103.6169 256.5023 15.06401573134834","MEAN_MOTION_DOT":"0.00006737"},{"MEAN_ELEMENT_THEORY":"SGP4","PERIOD":"95.590","SITE":"AFETR","ARG_OF_PERICENTER":"83.6616","MEAN_MOTION_DDOT":"0.0000000000000","CENTER_NAME":"EARTH","OBJECT_TYPE":"PAYLOAD","FILE":"3760027","EPOCH":"2023-01-24T17:38:38.610240","SEMIMAJOR_AXIS":"6925.251","RA_OF_ASC_NODE":"34.0696","NORAD_CAT_ID":"46174","MEAN_ANOMALY":"276.4551","GP_ID":"223638372","EPHEMERIS_TYPE":"0","ELEMENT_SET_NO":"999","INCLINATION":"53.0545","TLE_LINE1":"1 46174U 20057BK  23024.73516910  .00013277  00000-0  90774-3 0  9999","BSTAR":"0.00090774000000","REV_AT_EPOCH":"13490","LAUNCH_DATE":"2020-08-18","OBJECT_NAME":"STARLINK-1641","MEAN_MOTION":"15.06431777","ECCENTRICITY":"0.00015640","COUNTRY_CODE":"US","DECAY_DATE":null,"RCS_SIZE":"LARGE","OBJECT_ID":"2020-057BK","TIME_SYSTEM":"UTC","TLE_LINE2":"2 46174  53.0545  34.0696 0001564  83.6616 276.4551 15.06431777134908","MEAN_MOTION_DOT":"0.00013277","REF_FRAME":"TEME","APOAPSIS":"548.199","CLASSIFICATION_TYPE":"U","PERIAPSIS":"546.033"},{"MEAN_MOTION_DOT":"0.00012103","TLE_LINE2":"2 46325  53.0527  51.1086 0001573  80.4336 279.6830 15.06407671133644","TIME_SYSTEM":"UTC","OBJECT_ID":"2020-062A","DECAY_DATE":null,"RCS_SIZE":"LARGE","PERIAPSIS":"546.101","CLASSIFICATION_TYPE":"U","APOAPSIS":"548.279","REF_FRAME":"TEME","BSTAR":"0.00082982000000","TLE_LINE1":"1 46325U 20062A   23024.28225799  .00012103  00000-0  82982-3 0  9994","COUNTRY_CODE":"US","MEAN_MOTION":"15.06407671","ECCENTRICITY":"0.00015730","OBJECT_NAME":"STARLINK-1734","LAUNCH_DATE":"2020-09-03","REV_AT_EPOCH":"13364","NORAD_CAT_ID":"46325","MEAN_ANOMALY":"279.6830","SEMIMAJOR_AXIS":"6925.325","RA_OF_ASC_NODE":"51.1086","INCLINATION":"53.0527","ELEMENT_SET_NO":"999","GP_ID":"223630748","EPHEMERIS_TYPE":"0","OBJECT_TYPE":"PAYLOAD","CENTER_NAME":"EARTH","MEAN_MOTION_DDOT":"0.0000000000000","ARG_OF_PERICENTER":"80.4336","SITE":"AFETR","PERIOD":"95.592","MEAN_ELEMENT_THEORY":"SGP4","EPOCH":"2023-01-24T06:46:27.090336","FILE":"3759623"},{"LAUNCH_DATE":"2020-09-03","REV_AT_EPOCH":"13257","MEAN_MOTION":"15.06394501","ECCENTRICITY":"0.00011320","OBJECT_NAME":"STARLINK-1654","COUNTRY_CODE":"US","TLE_LINE1":"1 46326U 20062B   23024.08093762  .00001508  00000-0  12010-3 0  9998","BSTAR":"0.00012010000000","REF_FRAME":"TEME","CLASSIFICATION_TYPE":"U","APOAPSIS":"548.014","PERIAPSIS":"546.446","OBJECT_ID":"2020-062B","DECAY_DATE":null,"RCS_SIZE":"LARGE","TIME_SYSTEM":"UTC","TLE_LINE2":"2 46326  53.0527  97.2526 0001132  84.7628 275.3490 15.06394501132570","MEAN_MOTION_DOT":"0.00001508","FILE":"3759321","EPOCH":"2023-01-24T01:56:33.010368","SITE":"AFETR","PERIOD":"95.592","MEAN_ELEMENT_THEORY":"SGP4","ARG_OF_PERICENTER":"84.7628","CENTER_NAME":"EARTH","MEAN_MOTION_DDOT":"0.0000000000000","OBJECT_TYPE":"PAYLOAD","ELEMENT_SET_NO":"999","GP_ID":"223623468","EPHEMERIS_TYPE":"0","INCLINATION":"53.0527","SEMIMAJOR_AXIS":"6925.365","RA_OF_ASC_NODE":"97.2526","NORAD_CAT_ID":"46326","MEAN_ANOMALY":"275.3490"},{"TLE_LINE1":"1 46327U 20062C   23024.50110739 -.00000126  00000-0  10443-4 0  9995","BSTAR":"0.00001044300000","REV_AT_EPOCH":"13263","LAUNCH_DATE":"2020-09-03","OBJECT_NAME":"STARLINK-1673","MEAN_MOTION":"15.06397586","ECCENTRICITY":"0.00014370","COUNTRY_CODE":"US","RCS_SIZE":"LARGE","DECAY_DATE":null,"OBJECT_ID":"2020-062C","TIME_SYSTEM":"UTC","TLE_LINE2":"2 46327  53.0542  95.1174 0001437  97.8330 262.2822 15.06397586132634","MEAN_MOTION_DOT":"-0.00000126","REF_FRAME":"TEME","APOAPSIS":"548.216","CLASSIFICATION_TYPE":"U","PERIAPSIS":"546.226","MEAN_ELEMENT_THEORY":"SGP4","PERIOD":"95.592","SITE":"AFETR","ARG_OF_PERICENTER":"97.8330","MEAN_MOTION_DDOT":"0.0000000000000","CENTER_NAME":"EARTH","OBJECT_TYPE":"PAYLOAD","FILE":"3760042","EPOCH":"2023-01-24T12:01:35.678496","RA_OF_ASC_NODE":"95.1174","SEMIMAJOR_AXIS":"6925.356","NORAD_CAT_ID":"46327","MEAN_ANOMALY":"262.2822","EPHEMERIS_TYPE":"0","GP_ID":"223638635","ELEMENT_SET_NO":"999","INCLINATION":"53.0542"},{"OBJECT_TYPE":"PAYLOAD","MEAN_MOTION_DDOT":"0.0000000000000","CENTER_NAME":"EARTH","ARG_OF_PERICENTER":"74.4537","MEAN_ELEMENT_THEORY":"SGP4","PERIOD":"95.592","SITE":"AFETR","EPOCH":"2023-01-24T03:34:42.590784","FILE":"3759350","NORAD_CAT_ID":"46328","MEAN_ANOMALY":"285.6631","RA_OF_ASC_NODE":"76.7091","SEMIMAJOR_AXIS":"6925.356","INCLINATION":"53.0508","GP_ID":"223623821","EPHEMERIS_TYPE":"0","ELEMENT_SET_NO":"999","BSTAR":"0.00063696000000","TLE_LINE1":"1 46328U 20062D   23024.14910406  .00009218  00000-0  63696-3 0  9992","COUNTRY_CODE":"US","OBJECT_NAME":"STARLINK-1686","MEAN_MOTION":"15.06397446","ECCENTRICITY":"0.00016250","REV_AT_EPOCH":"13285","LAUNCH_DATE":"2020-09-03","MEAN_MOTION_DOT":"0.00009218","TLE_LINE2":"2 46328  53.0508  76.7091 0001625  74.4537 285.6631 15.06397446132855","TIME_SYSTEM":"UTC","DECAY_DATE":null,"RCS_SIZE":"LARGE","OBJECT_ID":"2020-062D","PERIAPSIS":"546.096","APOAPSIS":"548.347","CLASSIFICATION_TYPE":"U","REF_FRAME":"TEME"},{"MEAN_MOTION_DOT":"0.00014529","TLE_LINE2":"2 46329  53.0523  75.3716 0001278  97.9234 262.1900 15.06417690132909","TIME_SYSTEM":"UTC","DECAY_DATE":null,"RCS_SIZE":"LARGE","OBJECT_ID":"2020-062E","PERIAPSIS":"546.274","APOAPSIS":"548.044","CLASSIFICATION_TYPE":"U","REF_FRAME":"TEME","BSTAR":"0.00099181000000","TLE_LINE1":"1 46329U 20062E   23024.44765641  .00014529  00000-0  99181-3 0  9994","COUNTRY_CODE":"US","OBJECT_NAME":"STARLINK-1695","ECCENTRICITY":"0.00012780","MEAN_MOTION":"15.06417690","REV_AT_EPOCH":"13290","LAUNCH_DATE":"2020-09-03","NORAD_CAT_ID":"46329","MEAN_ANOMALY":"262.1900","RA_OF_ASC_NODE":"75.3716","SEMIMAJOR_AXIS":"6925.294","INCLINATION":"53.0523","GP_ID":"223639252","EPHEMERIS_TYPE":"0","ELEMENT_SET_NO":"999","OBJECT_TYPE":"PAYLOAD","MEAN_MOTION_DDOT":"0.0000000000000","CENTER_NAME":"EARTH","ARG_OF_PERICENTER":"97.9234","PERIOD":"95.591","MEAN_ELEMENT_THEORY":"SGP4","SITE":"AFETR","EPOCH":"2023-01-24T10:44:37.513824","FILE":"3760050"},{"TLE_LINE1":"1 46330U 20062F   23023.44139721  .00000782  00000-0  71384-4 0  9991","BSTAR":"0.00007138400000","REV_AT_EPOCH":"13258","LAUNCH_DATE":"2020-09-03","OBJECT_NAME":"STARLINK-1710","MEAN_MOTION":"15.06396693","ECCENTRICITY":"0.00010260","COUNTRY_CODE":"US","DECAY_DATE":null,"RCS_SIZE":"LARGE","OBJECT_ID":"2020-062F","TIME_SYSTEM":"UTC","TLE_LINE2":"2 46330  53.0536  79.8810 0001026  90.7403 269.3703 15.06396693132582","MEAN_MOTION_DOT":"0.00000782","REF_FRAME":"TEME","APOAPSIS":"547.934","CLASSIFICATION_TYPE":"U","PERIAPSIS":"546.513","MEAN_ELEMENT_THEORY":"SGP4","PERIOD":"95.592","SITE":"AFETR","ARG_OF_PERICENTER":"90.7403","MEAN_MOTION_DDOT":"0.0000000000000","CENTER_NAME":"EARTH","OBJECT_TYPE":"PAYLOAD","FILE":"3758668","EPOCH":"2023-01-23T10:35:36.718944","SEMIMAJOR_AXIS":"6925.359","RA_OF_ASC_NODE":"79.8810","NORAD_CAT_ID":"46330","MEAN_ANOMALY":"269.3703","GP_ID":"223610012","EPHEMERIS_TYPE":"0","ELEMENT_SET_NO":"999","INCLINATION":"53.0536"},{"PERIAPSIS":"546.135","CLASSIFICATION_TYPE":"U","APOAPSIS":"548.276","REF_FRAME":"TEME","MEAN_MOTION_DOT":"0.00004685","TLE_LINE2":"2 46331  53.0558  95.5472 0001546  99.9948 260.1215 15.06402623132621","TIME_SYSTEM":"UTC","OBJECT_ID":"2020-062G","RCS_SIZE":"LARGE","DECAY_DATE":null,"COUNTRY_CODE":"US","ECCENTRICITY":"0.00015460","MEAN_MOTION":"15.06402623","OBJECT_NAME":"STARLINK-1719","LAUNCH_DATE":"2020-09-03","REV_AT_EPOCH":"13262","BSTAR":"0.00033317000000","TLE_LINE1":"1 46331U 20062G   23024.40526984  .00004685  00000-0  33317-3 0  9999","INCLINATION":"53.0558","ELEMENT_SET_NO":"999","EPHEMERIS_TYPE":"0","GP_ID":"223633284","NORAD_CAT_ID":"46331","MEAN_ANOMALY":"260.1215","RA_OF_ASC_NODE":"95.5472","SEMIMAJOR_AXIS":"6925.341","EPOCH":"2023-01-24T09:43:35.314176","FILE":"3759754","OBJECT_TYPE":"PAYLOAD","CENTER_NAME":"EARTH","MEAN_MOTION_DDOT":"0.0000000000000","ARG_OF_PERICENTER":"99.9948","SITE":"AFETR","PERIOD":"95.592","MEAN_ELEMENT_THEORY":"SGP4"},{"OBJECT_TYPE":"PAYLOAD","CENTER_NAME":"EARTH","MEAN_MOTION_DDOT":"0.0000000000000","ARG_OF_PERICENTER":"59.2335","SITE":"AFETR","MEAN_ELEMENT_THEORY":"SGP4","PERIOD":"95.501","EPOCH":"2023-01-24T11:19:30.502848","FILE":"3759755","NORAD_CAT_ID":"46332","MEAN_ANOMALY":"300.8930","SEMIMAJOR_AXIS":"6920.933","RA_OF_ASC_NODE":"95.1475","INCLINATION":"53.0524","ELEMENT_SET_NO":"999","EPHEMERIS_TYPE":"0","GP_ID":"223633637","BSTAR":"0.00247120000000","TLE_LINE1":"1 46332U 20062H   23024.47188082  .00038200  00000-0  24712-2 0  9998","COUNTRY_CODE":"US","ECCENTRICITY":"0.00028050","MEAN_MOTION":"15.07841733","OBJECT_NAME":"STARLINK-1721","LAUNCH_DATE":"2020-09-03","REV_AT_EPOCH":"13263","MEAN_MOTION_DOT":"0.00038200","TLE_LINE2":"2 46332  53.0524  95.1475 0002805  59.2335 300.8930 15.07841733132639","TIME_SYSTEM":"UTC","OBJECT_ID":"2020-062H","RCS_SIZE":"LARGE","DECAY_DATE":null,"PERIAPSIS":"540.857","CLASSIFICATION_TYPE":"U","APOAPSIS":"544.740","REF_FRAME":"TEME"}];
